40012,UNISAT-6,2014,96.92,-1.0,+,97.75,Active,0,LEO,Russia,Italy,Unknown,Unknown,Unknown,1 40012U 14033C   25262.93290109  .00003547  00000+0  40615-3 0  9995,2 40012  97.7549  56.3855 0046255 237.6915 121.9817 14.85819451605991,14.85819451,0.0046255,LEO
43767,CORVUS BC4,2018,95.41,10.0,+,97.45,Active,1,LEO,USA,USA,Commercial,Earth Observation,Falcon,1 43767U 18099K   25263.07879820  .00005350  00000+0  33979-3 0  9999,2 43767  97.4495 308.8851 0008364 202.5653 157.5210 15.09244555371613,15.09244555,0.0008364,LEO
45384,STARLINK-1267,2020,95.59,227.0,+,53.05,Active,1,LEO,USA,USA,Commercial,Communications,Falcon,1 45384U 20019AA  25263.09026202  .00003143  00000+0  22970-3 0  9998,2 45384  53.0525 193.1275 0001117  91.4390 268.6727 15.06413327304287,15.06413327,0.0001117,LEO
46074,STARLINK-1549,2020,95.59,260.0,+,53.05,Active,1,LEO,USA,USA,Commercial,Communications,Falcon,1 46074U 20055AZ  25263.08373911  .00001907  00000+0  14689-3 0  9990,2 46074  53.0534 142.4987 0001636  98.4779 261.6396 15.06402868283587,15.06402868,0.0001636,LEO
48129,STARLINK-2471,2021,95.59,260.0,+,53.05,Active,1,LEO,USA,USA,Commercial,Communications,Falcon,1 48129U 21027AP  25263.15606608  .00001484  00000+0  11846-3 0  9995,2 48129  53.0524 217.1733 0001069  87.3734 272.7377 15.06405640246713,15.0640564,0.0001069,LEO
49748,STARLINK-3248,2021,95.44,260.0,+,53.22,Active,1,LEO,USA,USA,Commercial,Communications,Falcon,1 49748U 21115AA  25263.11056751  .00002142  00000+0  15265-3 0  9996,2 49748  53.2168 194.4571 0001257 102.6128 257.5005 15.08829823209792,15.08829823,0.0001257,LEO
52707,STARLINK-4007,2022,95.44,260.0,+,53.22,Active,1,LEO,USA,USA,Commercial,Communications,Falcon,1 52707U 22053BD  25262.95927955  .00001095  00000+0  86842-4 0  9997,2 52707  53.2153 180.4455 0001078  96.0975 264.0140 15.08846435185602,15.08846435,0.0001078,LEO
53908,STARLINK-5057,2022,95.44,260.0,+,53.22,Active,1,LEO,USA,USA,Commercial,Communications,Falcon,1 53908U 22119Y   25262.59683290  .00001009  00000+0  81457-4 0  9997,2 53908  53.2189   2.3297 0001168  93.2117 266.9009 15.08836889165995,15.08836889,0.0001168,LEO
57154,STARLINK-6106,2023,95.84,-1.0,+,43.0,Active,0,LEO,USA,USA,Unknown,Unknown,Unknown,1 57154U 23090BF  25262.96724262  .00000875  00000+0  79832-4 0  9993,2 57154  43.0030 109.1646 0001109 267.6640  92.4076 15.02537593124884,15.02537593,0.0001109,LEO
57262,STARLINK-5504,2023,95.84,-1.0,+,43.0,Active,0,LEO,USA,USA,Unknown,Unknown,Unknown,1 57262U 23094AW  25262.92707029  .00000903  00000+0  81934-4 0  9993,2 57262  43.0028 225.1302 0001242 265.6790  94.3911 15.02533701121581,15.02533701,0.0001242,LEO
57306,STARLINK-30200,2023,94.56,-1.0,P,42.99,Active,0,LEO,USA,USA,Unknown,Unknown,Unknown,1 57306U 23096S   25263.11465353 -.00002890  00000+0 -10961-3 0  9997,2 57306  42.9940  51.7411 0021821 300.1100  59.7587 15.22840362121276,15.22840362,0.0021821,LEO
61753,HORS 3 (RS81S),2024,93.68,-1.0,+,97.34,Active,0,LEO,Russia,Russia/USSR,Unknown,Unknown,Unknown,1 61753U 24199U   25263.11218673  .00019276  00000+0  53079-3 0  9995,2 61753  97.3367 131.5380 0009727 171.6931 188.4476 15.37147807 95839,15.37147807,0.0009727,LEO
61965,STARLINK-32514,2024,94.27,-1.0,+,43.0,Active,0,LEO,USA,USA,Unknown,Unknown,Unknown,1 61965U 24210G   25263.11157312  .00033675  00000+0  12270-2 0  9992,2 61965  42.9998  56.1165 0001084 270.2334  89.8393 15.27596670 48907,15.2759667,0.0001084,LEO
