[
  {
    "OBJECT_NAME": "STARLINK-5057",
    "OBJECT_ID": "2022-119Y",
    "EPOCH": "2025-09-19T14:19:26.362560",
    "MEAN_MOTION": 15.08836889,
    "ECCENTRICITY": 0.00011683,
    "INCLINATION": 53.2189,
    "RA_OF_ASC_NODE": 2.3297,
    "ARG_OF_PERICENTER": 93.2117,
    "MEAN_ANOMALY": 266.9009,
    "EPHEMERIS_TYPE": 0,
    "CLASSIFICATION_TYPE": "U",
    "NORAD_CAT_ID": 53908,
    "ELEMENT_SET_NO": 999,
    "REV_AT_EPOCH": 16599,
    "BSTAR": 8.1457085e-05,
    "MEAN_MOTION_DOT": 1.009e-05,
    "MEAN_MOTION_DDOT": 0
  },
  {
    "OBJECT_NAME": "STARLINK-1267",
    "OBJECT_ID": "2020-019AA",
    "EPOCH": "2025-09-20T02:09:58.638528",
    "MEAN_MOTION": 15.06413327,
    "ECCENTRICITY": 0.00011171,
    "INCLINATION": 53.0525,
    "RA_OF_ASC_NODE": 193.1275,
    "ARG_OF_PERICENTER": 91.439,
    "MEAN_ANOMALY": 268.6727,
    "EPHEMERIS_TYPE": 0,
    "CLASSIFICATION_TYPE": "U",
    "NORAD_CAT_ID": 45384,
    "ELEMENT_SET_NO": 999,
    "REV_AT_EPOCH": 30428,
    "BSTAR": 0.0002297007,
    "MEAN_MOTION_DOT": 3.143e-05,
    "MEAN_MOTION_DDOT": 0
  },
  {
    "OBJECT_NAME": "CORVUS BC4",
    "OBJECT_ID": "2018-099K",
    "EPOCH": "2025-09-20T01:53:28.164480",
    "MEAN_MOTION": 15.09244555,
    "ECCENTRICITY": 0.00083642,
    "INCLINATION": 97.4495,
    "RA_OF_ASC_NODE": 308.8851,
    "ARG_OF_PERICENTER": 202.5653,
    "MEAN_ANOMALY": 157.521,
    "EPHEMERIS_TYPE": 0,
    "CLASSIFICATION_TYPE": "U",
    "NORAD_CAT_ID": 43767,
    "ELEMENT_SET_NO": 999,
    "REV_AT_EPOCH": 37161,
    "BSTAR": 0.00033979371,
    "MEAN_MOTION_DOT": 5.35e-05,
    "MEAN_MOTION_DDOT": 0
  },
  {
    "OBJECT_NAME": "STARLINK-5504",
    "OBJECT_ID": "2023-094AW",
    "EPOCH": "2025-09-19T22:14:58.873056",
    "MEAN_MOTION": 15.02533701,
    "ECCENTRICITY": 0.00012422,
    "INCLINATION": 43.0028,
    "RA_OF_ASC_NODE": 225.1302,
    "ARG_OF_PERICENTER": 265.679,
    "MEAN_ANOMALY": 94.3911,
    "EPHEMERIS_TYPE": 0,
    "CLASSIFICATION_TYPE": "U",
    "NORAD_CAT_ID": 57262,
    "ELEMENT_SET_NO": 999,
    "REV_AT_EPOCH": 12158,
    "BSTAR": 8.1934183e-05,
    "MEAN_MOTION_DOT": 9.03e-06,
    "MEAN_MOTION_DDOT": 0
  },
  {
    "OBJECT_NAME": "STARLINK-6106",
    "OBJECT_ID": "2023-090BF",
    "EPOCH": "2025-09-19T23:12:49.762368",
    "MEAN_MOTION": 15.02537593,
    "ECCENTRICITY": 0.00011098,
    "INCLINATION": 43.003,
    "RA_OF_ASC_NODE": 109.1646,
    "ARG_OF_PERICENTER": 267.664,
    "MEAN_ANOMALY": 92.4076,
    "EPHEMERIS_TYPE": 0,
    "CLASSIFICATION_TYPE": "U",
    "NORAD_CAT_ID": 57154,
    "ELEMENT_SET_NO": 999,
    "REV_AT_EPOCH": 12488,
    "BSTAR": 7.9832064e-05,
    "MEAN_MOTION_DOT": 8.75e-06,
    "MEAN_MOTION_DDOT": 0
  },
  {
    "OBJECT_NAME": "STARLINK-32514",
    "OBJECT_ID": "2024-210G",
    "EPOCH": "2025-09-20T02:40:39.917568",
    "MEAN_MOTION": 15.2759667,
    "ECCENTRICITY": 0.00010849,
    "INCLINATION": 42.9998,
    "RA_OF_ASC_NODE": 56.1165,
    "ARG_OF_PERICENTER": 270.2334,
    "MEAN_ANOMALY": 89.8393,
    "EPHEMERIS_TYPE": 0,
    "CLASSIFICATION_TYPE": "U",
    "NORAD_CAT_ID": 61965,
    "ELEMENT_SET_NO": 999,
    "REV_AT_EPOCH": 4890,
    "BSTAR": 0.0012270335,
    "MEAN_MOTION_DOT": 0.00033675,
    "MEAN_MOTION_DDOT": 0
  },
  {
    "OBJECT_NAME": "STARLINK-3248",
    "OBJECT_ID": "2021-115AA",
    "EPOCH": "2025-09-20T02:39:13.032864",
    "MEAN_MOTION": 15.08829823,
    "ECCENTRICITY": 0.00012572,
    "INCLINATION": 53.2168,
    "RA_OF_ASC_NODE": 194.4571,
    "ARG_OF_PERICENTER": 102.6128,
    "MEAN_ANOMALY": 257.5005,
    "EPHEMERIS_TYPE": 0,
    "CLASSIFICATION_TYPE": "U",
    "NORAD_CAT_ID": 49748,
    "ELEMENT_SET_NO": 999,
    "REV_AT_EPOCH": 20979,
    "BSTAR": 0.00015265179,
    "MEAN_MOTION_DOT": 2.142e-05,
    "MEAN_MOTION_DDOT": 0
  },
  {
    "OBJECT_NAME": "STARLINK-1549",
    "OBJECT_ID": "2020-055AZ",
    "EPOCH": "2025-09-20T02:00:35.059104",
    "MEAN_MOTION": 15.06402868,
    "ECCENTRICITY": 0.0001636,
    "INCLINATION": 53.0534,
    "RA_OF_ASC_NODE": 142.4987,
    "ARG_OF_PERICENTER": 98.4779,
    "MEAN_ANOMALY": 261.6396,
    "EPHEMERIS_TYPE": 0,
    "CLASSIFICATION_TYPE": "U",
    "NORAD_CAT_ID": 46074,
    "ELEMENT_SET_NO": 999,
    "REV_AT_EPOCH": 28358,
    "BSTAR": 0.00014688823,
    "MEAN_MOTION_DOT": 1.907e-05,
    "MEAN_MOTION_DDOT": 0
  },
  {
    "OBJECT_NAME": "STARLINK-2471",
    "OBJECT_ID": "2021-027AP",
    "EPOCH": "2025-09-20T03:44:44.109312",
    "MEAN_MOTION": 15.0640564,
    "ECCENTRICITY": 0.00010692,
    "INCLINATION": 53.0524,
    "RA_OF_ASC_NODE": 217.1733,
    "ARG_OF_PERICENTER": 87.3734,
    "MEAN_ANOMALY": 272.7377,
    "EPHEMERIS_TYPE": 0,
    "CLASSIFICATION_TYPE": "U",
    "NORAD_CAT_ID": 48129,
    "ELEMENT_SET_NO": 999,
    "REV_AT_EPOCH": 24671,
    "BSTAR": 0.00011845814,
    "MEAN_MOTION_DOT": 1.484e-05,
    "MEAN_MOTION_DDOT": 0
  },
  {
    "OBJECT_NAME": "HORS 3 (RS81S)",
    "OBJECT_ID": "2024-199U",
    "EPOCH": "2025-09-20T02:41:32.933472",
    "MEAN_MOTION": 15.37147807,
    "ECCENTRICITY": 0.00097277,
    "INCLINATION": 97.3367,
    "RA_OF_ASC_NODE": 131.538,
    "ARG_OF_PERICENTER": 171.6931,
    "MEAN_ANOMALY": 188.4476,
    "EPHEMERIS_TYPE": 0,
    "CLASSIFICATION_TYPE": "U",
    "NORAD_CAT_ID": 61753,
    "ELEMENT_SET_NO": 999,
    "REV_AT_EPOCH": 9583,
    "BSTAR": 0.00053078559,
    "MEAN_MOTION_DOT": 0.00019276,
    "MEAN_MOTION_DDOT": 0
  },
  {
    "OBJECT_NAME": "UNISAT-6",
    "OBJECT_ID": "2014-033C",
    "EPOCH": "2025-09-19T22:23:22.654176",
    "MEAN_MOTION": 14.85819451,
    "ECCENTRICITY": 0.0046255,
    "INCLINATION": 97.7549,
    "RA_OF_ASC_NODE": 56.3855,
    "ARG_OF_PERICENTER": 237.6915,
    "MEAN_ANOMALY": 121.9817,
    "EPHEMERIS_TYPE": 0,
    "CLASSIFICATION_TYPE": "U",
    "NORAD_CAT_ID": 40012,
    "ELEMENT_SET_NO": 999,
    "REV_AT_EPOCH": 60599,
    "BSTAR": 0.00040614844,
    "MEAN_MOTION_DOT": 3.547e-05,
    "MEAN_MOTION_DDOT": 0
  },
  {
    "OBJECT_NAME": "STARLINK-30200",
    "OBJECT_ID": "2023-096S",
    "EPOCH": "2025-09-20T02:45:06.064992",
    "MEAN_MOTION": 15.22840362,
    "ECCENTRICITY": 0.00218214,
    "INCLINATION": 42.994,
    "RA_OF_ASC_NODE": 51.7411,
    "ARG_OF_PERICENTER": 300.11,
    "MEAN_ANOMALY": 59.7587,
    "EPHEMERIS_TYPE": 0,
    "CLASSIFICATION_TYPE": "U",
    "NORAD_CAT_ID": 57306,
    "ELEMENT_SET_NO": 999,
    "REV_AT_EPOCH": 12127,
    "BSTAR": -0.00010961018,
    "MEAN_MOTION_DOT": -2.89e-05,
    "MEAN_MOTION_DDOT": 0
  },
  {
    "OBJECT_NAME": "STARLINK-4007",
    "OBJECT_ID": "2022-053BD",
    "EPOCH": "2025-09-19T23:01:21.753120",
    "MEAN_MOTION": 15.08846435,
    "ECCENTRICITY": 0.00010781,
    "INCLINATION": 53.2153,
    "RA_OF_ASC_NODE": 180.4455,
    "ARG_OF_PERICENTER": 96.0975,
    "MEAN_ANOMALY": 264.014,
    "EPHEMERIS_TYPE": 0,
    "CLASSIFICATION_TYPE": "U",
    "NORAD_CAT_ID": 52707,
    "ELEMENT_SET_NO": 999,
    "REV_AT_EPOCH": 18560,
    "BSTAR": 8.6842168e-05,
    "MEAN_MOTION_DOT": 1.095e-05,
    "MEAN_MOTION_DDOT": 0
  }
]